[
  {
    "OBJECT_NAME": "NOAA 1",
    "OBJECT_ID": "1970-106A",
    "EPOCH": "2025-04-17T18:33:48.251232",
    "MEAN_MOTION": 12.54042142,
    "ECCENTRICITY": 0.0032125,
    "INCLINATION": 101.3957,
    "RA_OF_ASC_NODE": 154.8988,
    "ARG_OF_PERICENTER": 101.1324,
    "MEAN_ANOMALY": 17.1769,
    "EPHEMERIS_TYPE": 0,
    "CLASSIFICATION_TYPE": "U",
    "NORAD_CAT_ID": 4793,
    "ELEMENT_SET_NO": 999,
    "REV_AT_EPOCH": 48736,
    "BSTAR": 0.000053853,
    "MEAN_MOTION_DOT": -3.4e-7,
    "MEAN_MOTION_DDOT": 0
  },
  {
    "OBJECT_NAME": "NOAA 2 (ITOS-D)",
    "OBJECT_ID": "1972-082A",
    "EPOCH": "2025-04-17T22:55:41.433024",
    "MEAN_MOTION": 12.53198846,
    "ECCENTRICITY": 0.0003652,
    "INCLINATION": 102.024,
    "RA_OF_ASC_NODE": 116.5455,
    "ARG_OF_PERICENTER": 259.0548,
    "MEAN_ANOMALY": 168.9552,
    "EPHEMERIS_TYPE": 0,
    "CLASSIFICATION_TYPE": "U",
    "NORAD_CAT_ID": 6235,
    "ELEMENT_SET_NO": 999,
    "REV_AT_EPOCH": 40168,
    "BSTAR": 0.000041787,
    "MEAN_MOTION_DOT": -4e-7,
    "MEAN_MOTION_DDOT": 0
  },
  {
    "OBJECT_NAME": "NOAA 3",
    "OBJECT_ID": "1973-086A",
    "EPOCH": "2025-04-17T21:54:26.578368",
    "MEAN_MOTION": 12.40381099,
    "ECCENTRICITY": 0.0006493,
    "INCLINATION": 102.2909,
    "RA_OF_ASC_NODE": 112.7142,
    "ARG_OF_PERICENTER": 182.905,
    "MEAN_ANOMALY": 236.4673,
    "EPHEMERIS_TYPE": 0,
    "CLASSIFICATION_TYPE": "U",
    "NORAD_CAT_ID": 6920,
    "ELEMENT_SET_NO": 999,
    "REV_AT_EPOCH": 32917,
    "BSTAR": 0.000017563,
    "MEAN_MOTION_DOT": -4.4e-7,
    "MEAN_MOTION_DDOT": 0
  },
  {
    "OBJECT_NAME": "NOAA 4",
    "OBJECT_ID": "1974-089A",
    "EPOCH": "2025-04-17T22:10:55.999200",
    "MEAN_MOTION": 12.53193769,
    "ECCENTRICITY": 0.0008598,
    "INCLINATION": 102.005,
    "RA_OF_ASC_NODE": 111.1942,
    "ARG_OF_PERICENTER": 288.3749,
    "MEAN_ANOMALY": 101.0294,
    "EPHEMERIS_TYPE": 0,
    "CLASSIFICATION_TYPE": "U",
    "NORAD_CAT_ID": 7529,
    "ELEMENT_SET_NO": 999,
    "REV_AT_EPOCH": 30625,
    "BSTAR": 0.000046673,
    "MEAN_MOTION_DOT": -3.9e-7,
    "MEAN_MOTION_DDOT": 0
  },
  {
    "OBJECT_NAME": "NOAA 5",
    "OBJECT_ID": "1976-077A",
    "EPOCH": "2025-04-17T23:07:13.873728",
    "MEAN_MOTION": 12.37816284,
    "ECCENTRICITY": 0.0010088,
    "INCLINATION": 102.2551,
    "RA_OF_ASC_NODE": 87.3649,
    "ARG_OF_PERICENTER": 39.0785,
    "MEAN_ANOMALY": 338.2008,
    "EPHEMERIS_TYPE": 0,
    "CLASSIFICATION_TYPE": "U",
    "NORAD_CAT_ID": 9057,
    "ELEMENT_SET_NO": 999,
    "REV_AT_EPOCH": 20186,
    "BSTAR": 0.00021535,
    "MEAN_MOTION_DOT": -1.8e-7,
    "MEAN_MOTION_DDOT": 0
  },
  {
    "OBJECT_NAME": "TIROS N",
    "OBJECT_ID": "1978-096A",
    "EPOCH": "2025-04-18T02:27:37.068768",
    "MEAN_MOTION": 14.19164371,
    "ECCENTRICITY": 0.0011089,
    "INCLINATION": 98.4931,
    "RA_OF_ASC_NODE": 142.564,
    "ARG_OF_PERICENTER": 39.9334,
    "MEAN_ANOMALY": 320.2656,
    "EPHEMERIS_TYPE": 0,
    "CLASSIFICATION_TYPE": "U",
    "NORAD_CAT_ID": 11060,
    "ELEMENT_SET_NO": 999,
    "REV_AT_EPOCH": 61869,
    "BSTAR": 0.0001752,
    "MEAN_MOTION_DOT": 0.00000325,
    "MEAN_MOTION_DDOT": 0
  },
  {
    "OBJECT_NAME": "NOAA 6",
    "OBJECT_ID": "1979-057A",
    "EPOCH": "2025-04-18T01:28:49.628928",
    "MEAN_MOTION": 14.3512518,
    "ECCENTRICITY": 0.0011116,
    "INCLINATION": 98.6044,
    "RA_OF_ASC_NODE": 134.6776,
    "ARG_OF_PERICENTER": 80.1924,
    "MEAN_ANOMALY": 280.0516,
    "EPHEMERIS_TYPE": 0,
    "CLASSIFICATION_TYPE": "U",
    "NORAD_CAT_ID": 11416,
    "ELEMENT_SET_NO": 999,
    "REV_AT_EPOCH": 39018,
    "BSTAR": 0.00025273,
    "MEAN_MOTION_DOT": 0.00000678,
    "MEAN_MOTION_DDOT": 0
  },
  {
    "OBJECT_NAME": "NOAA 7",
    "OBJECT_ID": "1981-059A",
    "EPOCH": "2025-04-18T02:23:56.200992",
    "MEAN_MOTION": 14.17693495,
    "ECCENTRICITY": 0.0012159,
    "INCLINATION": 98.8476,
    "RA_OF_ASC_NODE": 173.0482,
    "ARG_OF_PERICENTER": 48.0997,
    "MEAN_ANOMALY": 312.1213,
    "EPHEMERIS_TYPE": 0,
    "CLASSIFICATION_TYPE": "U",
    "NORAD_CAT_ID": 12553,
    "ELEMENT_SET_NO": 999,
    "REV_AT_EPOCH": 26473,
    "BSTAR": 0.000079245,
    "MEAN_MOTION_DOT": 0.00000117,
    "MEAN_MOTION_DDOT": 0
  },
  {
    "OBJECT_NAME": "NOAA 8",
    "OBJECT_ID": "1983-022A",
    "EPOCH": "2025-04-17T21:54:20.102688",
    "MEAN_MOTION": 14.29605154,
    "ECCENTRICITY": 0.0015907,
    "INCLINATION": 98.739,
    "RA_OF_ASC_NODE": 114.6539,
    "ARG_OF_PERICENTER": 64.4916,
    "MEAN_ANOMALY": 295.7909,
    "EPHEMERIS_TYPE": 0,
    "CLASSIFICATION_TYPE": "U",
    "NORAD_CAT_ID": 13923,
    "ELEMENT_SET_NO": 999,
    "REV_AT_EPOCH": 19056,
    "BSTAR": 0.00014678,
    "MEAN_MOTION_DOT": 0.00000331,
    "MEAN_MOTION_DDOT": 0
  },
  {
    "OBJECT_NAME": "NOAA 9",
    "OBJECT_ID": "1984-123A",
    "EPOCH": "2025-04-17T23:24:33.431616",
    "MEAN_MOTION": 14.1690122,
    "ECCENTRICITY": 0.0015679,
    "INCLINATION": 99.1248,
    "RA_OF_ASC_NODE": 119.0994,
    "ARG_OF_PERICENTER": 112.6737,
    "MEAN_ANOMALY": 276.9908,
    "EPHEMERIS_TYPE": 0,
    "CLASSIFICATION_TYPE": "U",
    "NORAD_CAT_ID": 15427,
    "ELEMENT_SET_NO": 999,
    "REV_AT_EPOCH": 8320,
    "BSTAR": 0.00015039,
    "MEAN_MOTION_DOT": 0.00000255,
    "MEAN_MOTION_DDOT": 0
  },
  {
    "OBJECT_NAME": "NOAA 10",
    "OBJECT_ID": "1986-073A",
    "EPOCH": "2025-04-17T23:03:58.277088",
    "MEAN_MOTION": 14.28980145,
    "ECCENTRICITY": 0.0012492,
    "INCLINATION": 98.6732,
    "RA_OF_ASC_NODE": 97.6118,
    "ARG_OF_PERICENTER": 155.0825,
    "MEAN_ANOMALY": 222.883,
    "EPHEMERIS_TYPE": 0,
    "CLASSIFICATION_TYPE": "U",
    "NORAD_CAT_ID": 16969,
    "ELEMENT_SET_NO": 999,
    "REV_AT_EPOCH": 893,
    "BSTAR": 0.00014636,
    "MEAN_MOTION_DOT": 0.00000326,
    "MEAN_MOTION_DDOT": 0
  },
  {
    "OBJECT_NAME": "NOAA 11",
    "OBJECT_ID": "1988-089A",
    "EPOCH": "2025-04-17T21:58:23.570976",
    "MEAN_MOTION": 14.15731598,
    "ECCENTRICITY": 0.0012227,
    "INCLINATION": 98.5664,
    "RA_OF_ASC_NODE": 63.8084,
    "ARG_OF_PERICENTER": 79.8681,
    "MEAN_ANOMALY": 280.3872,
    "EPHEMERIS_TYPE": 0,
    "CLASSIFICATION_TYPE": "U",
    "NORAD_CAT_ID": 19531,
    "ELEMENT_SET_NO": 999,
    "REV_AT_EPOCH": 88755,
    "BSTAR": 0.00011624,
    "MEAN_MOTION_DOT": 0.00000186,
    "MEAN_MOTION_DDOT": 0
  },
  {
    "OBJECT_NAME": "NOAA 12",
    "OBJECT_ID": "1991-032A",
    "EPOCH": "2025-04-17T21:50:40.994880",
    "MEAN_MOTION": 14.26589453,
    "ECCENTRICITY": 0.0013428,
    "INCLINATION": 98.5863,
    "RA_OF_ASC_NODE": 98.6385,
    "ARG_OF_PERICENTER": 186.0716,
    "MEAN_ANOMALY": 174.0304,
    "EPHEMERIS_TYPE": 0,
    "CLASSIFICATION_TYPE": "U",
    "NORAD_CAT_ID": 21263,
    "ELEMENT_SET_NO": 999,
    "REV_AT_EPOCH": 76432,
    "BSTAR": 0.00011819,
    "MEAN_MOTION_DOT": 0.00000242,
    "MEAN_MOTION_DDOT": 0
  },
  {
    "OBJECT_NAME": "NOAA 13",
    "OBJECT_ID": "1993-050A",
    "EPOCH": "2025-04-17T20:05:36.046464",
    "MEAN_MOTION": 14.13506531,
    "ECCENTRICITY": 0.0008329,
    "INCLINATION": 98.6521,
    "RA_OF_ASC_NODE": 60.5158,
    "ARG_OF_PERICENTER": 263.515,
    "MEAN_ANOMALY": 96.5075,
    "EPHEMERIS_TYPE": 0,
    "CLASSIFICATION_TYPE": "U",
    "NORAD_CAT_ID": 22739,
    "ELEMENT_SET_NO": 999,
    "REV_AT_EPOCH": 63328,
    "BSTAR": 0.00015823,
    "MEAN_MOTION_DOT": 0.00000255,
    "MEAN_MOTION_DDOT": 0
  }
]