NOAA 1                  
1 04793U 70106A   25107.77347513 -.00000034  00000+0  53853-4 0  9994
2 04793 101.3957 154.8988 0032125 101.1324  17.1769 12.54042142487363
NOAA 2 (ITOS-D)         
1 06235U 72082A   25107.95534066 -.00000040  00000+0  41787-4 0  9993
2 06235 102.0240 116.5455 0003652 259.0548 168.9552 12.53198846401685
NOAA 3                  
1 06920U 73086A   25107.91280762 -.00000044  00000+0  17563-4 0  9995
2 06920 102.2909 112.7142 0006493 182.9050 236.4673 12.40381099329177
NOAA 4                  
1 07529U 74089A   25107.92425925 -.00000039  00000+0  46673-4 0  9996
2 07529 102.0050 111.1942 0008598 288.3749 101.0294 12.53193769306252
NOAA 5                  
1 09057U 76077A   25107.96335502 -.00000018  00000+0  21535-3 0  9994
2 09057 102.2551  87.3649 0010088  39.0785 338.2008 12.37816284201868
TIROS N                 
1 11060U 78096A   25108.10251237  .00000325  00000+0  17520-3 0  9992
2 11060  98.4931 142.5640 0011089  39.9334 320.2656 14.19164371618697
NOAA 6                  
1 11416U 79057A   25108.06168552  .00000678  00000+0  25273-3 0  9992
2 11416  98.6044 134.6776 0011116  80.1924 280.0516 14.35125180390187
NOAA 7                  
1 12553U 81059A   25108.09995603  .00000117  00000+0  79245-4 0  9995
2 12553  98.8476 173.0482 0012159  48.0997 312.1213 14.17693495264734
NOAA 8                  
1 13923U 83022A   25107.91273267  .00000331  00000+0  14678-3 0  9990
2 13923  98.7390 114.6539 0015907  64.4916 295.7909 14.29605154190566
NOAA 9                  
1 15427U 84123A   25107.97538694  .00000255  00000+0  15039-3 0  9995
2 15427  99.1248 119.0994 0015679 112.6737 276.9908 14.16901220 83202
NOAA 10                 
1 16969U 86073A   25107.96109117  .00000326  00000+0  14636-3 0  9997
2 16969  98.6732  97.6118 0012492 155.0825 222.8830 14.28980145  8931
NOAA 11                 
1 19531U 88089A   25107.91555059  .00000186  00000+0  11624-3 0  9997
2 19531  98.5664  63.8084 0012227  79.8681 280.3872 14.15731598887558
NOAA 12                 
1 21263U 91032A   25107.91019670  .00000242  00000+0  11819-3 0  9997
2 21263  98.5863  98.6385 0013428 186.0716 174.0304 14.26589453764329
NOAA 13                 
1 22739U 93050A   25107.83722276  .00000255  00000+0  15823-3 0  9995
2 22739  98.6521  60.5158 0008329 263.5150  96.5075 14.13506531633288
